{
  "norad_id": 60584,
  "name": "STARLINK-32204",
  "history": [
    {
      "epoch": "2026-03-28T18:35:49.775424",
      "apogee_km": 476.07577189055337,
      "perigee_km": 474.35886956612467,
      "latitude_deg": -38.830393683213615,
      "longitude_deg": -47.21136064012535,
      "semi_major_axis_km": 6853.354320728339,
      "eccentricity": 0.00012526,
      "inclination_deg": 53.1615,
      "raan_deg": 218.3608,
      "arg_perigee_deg": 80.4994,
      "mean_anomaly_deg": 279.6149,
      "mean_motion_rev_day": 15.30199246
    }
  ]
}